{
  "type": "FeatureCollection",
  "features": [
    {
      "type": "Feature",
      "properties": {
        "norad_id": 41581,
        "name": "INTELSAT 31 (IS-31)",
        "group": "intelsat",
        "lat": 0.008672519496419994,
        "lon": 114.27095013058502,
        "alt_km": 35786.920055990704,
        "timestamp": "2025-12-25T07:41:09.390767+00:00",
        "meta_object_name": "INTELSAT 31 (IS-31)",
        "meta_object_id": "2016-035A",
        "meta_epoch": "2025-12-23T19:31:44.703840",
        "meta_mean_motion": 1.00269658,
        "meta_eccentricity": 0.0001926,
        "meta_inclination": 0.0283,
        "meta_ra_of_asc_node": 262.055,
        "meta_arg_of_pericenter": 303.365,
        "meta_mean_anomaly": 85.0534,
        "meta_ephemeris_type": 0,
        "meta_classification_type": "U",
        "meta_norad_cat_id": 41581,
        "meta_element_set_no": 999,
        "meta_rev_at_epoch": 3492,
        "meta_bstar": 0,
        "meta_mean_motion_dot": -1.29e-06,
        "meta_mean_motion_ddot": 0,
        "tle_line1": "1 41581U 16035A   25357.81371185 -.00000129  00000+0  00000+0 0  9991",
        "tle_line2": "2 41581   0.0283 262.0550 0001926 303.3650  85.0534  1.00269658 34922"
      },
      "geometry": {
        "type": "Point",
        "coordinates": [
          114.27095013058502,
          0.008672519496419994
        ]
      }
    },
    {
      "type": "Feature",
      "properties": {
        "norad_id": 41747,
        "name": "INTELSAT 36 (IS-36)",
        "group": "intelsat",
        "lat": -0.03204307835886129,
        "lon": -82.15393456052425,
        "alt_km": 35782.878631072716,
        "timestamp": "2025-12-25T07:41:09.390778+00:00",
        "meta_object_name": "INTELSAT 36 (IS-36)",
        "meta_object_id": "2016-053A",
        "meta_epoch": "2025-12-24T20:06:06.128352",
        "meta_mean_motion": 1.00271083,
        "meta_eccentricity": 0.00011781,
        "meta_inclination": 0.011,
        "meta_ra_of_asc_node": 13.055,
        "meta_arg_of_pericenter": 311.9516,
        "meta_mean_anomaly": 138.6177,
        "meta_ephemeris_type": 0,
        "meta_classification_type": "U",
        "meta_norad_cat_id": 41747,
        "meta_element_set_no": 999,
        "meta_rev_at_epoch": 3420,
        "meta_bstar": 0,
        "meta_mean_motion_dot": -3e-08,
        "meta_mean_motion_ddot": 0,
        "tle_line1": "1 41747U 16053A   25358.83757093 -.00000003  00000+0  00000+0 0  9995",
        "tle_line2": "2 41747   0.0110  13.0550 0001178 311.9516 138.6177  1.00271083 34208"
      },
      "geometry": {
        "type": "Point",
        "coordinates": [
          -82.15393456052425,
          -0.03204307835886129
        ]
      }
    },
    {
      "type": "Feature",
      "properties": {
        "norad_id": 41945,
        "name": "INTELSAT 32E (IS-32E)",
        "group": "intelsat",
        "lat": 0.03220609984771845,
        "lon": 166.19111688989574,
        "alt_km": 35788.643603932076,
        "timestamp": "2025-12-25T07:41:09.390790+00:00",
        "meta_object_name": "INTELSAT 32E (IS-32E)",
        "meta_object_id": "2017-007B",
        "meta_epoch": "2025-12-24T19:44:32.901792",
        "meta_mean_motion": 1.00269314,
        "meta_eccentricity": 5.734e-05,
        "meta_inclination": 0.0239,
        "meta_ra_of_asc_node": 70.0768,
        "meta_arg_of_pericenter": 316.8517,
        "meta_mean_anomaly": 319.6269,
        "meta_ephemeris_type": 0,
        "meta_classification_type": "U",
        "meta_norad_cat_id": 41945,
        "meta_element_set_no": 999,
        "meta_rev_at_epoch": 3247,
        "meta_bstar": 0,
        "meta_mean_motion_dot": -2.48e-06,
        "meta_mean_motion_ddot": 0,
        "tle_line1": "1 41945U 17007B   25358.82260303 -.00000248  00000+0  00000+0 0  9998",
        "tle_line2": "2 41945   0.0239  70.0768 0000573 316.8517 319.6269  1.00269314 32471"
      },
      "geometry": {
        "type": "Point",
        "coordinates": [
          166.19111688989574,
          0.03220609984771845
        ]
      }
    },
    {
      "type": "Feature",
      "properties": {
        "norad_id": 42818,
        "name": "INTELSAT 35E (IS-35E)",
        "group": "intelsat",
        "lat": 0.017418409130416118,
        "lon": 174.8265804355977,
        "alt_km": 35788.937460563975,
        "timestamp": "2025-12-25T07:41:09.390801+00:00",
        "meta_object_name": "INTELSAT 35E (IS-35E)",
        "meta_object_id": "2017-041A",
        "meta_epoch": "2025-12-24T19:47:02.663232",
        "meta_mean_motion": 1.00269135,
        "meta_eccentricity": 0.00019942,
        "meta_inclination": 0.0182,
        "meta_ra_of_asc_node": 26.5073,
        "meta_arg_of_pericenter": 252.54,
        "meta_mean_anomaly": 76.7961,
        "meta_ephemeris_type": 0,
        "meta_classification_type": "U",
        "meta_norad_cat_id": 42818,
        "meta_element_set_no": 999,
        "meta_rev_at_epoch": 3106,
        "meta_bstar": 0,
        "meta_mean_motion_dot": -2.17e-06,
        "meta_mean_motion_ddot": 0,
        "tle_line1": "1 42818U 17041A   25358.82433638 -.00000217  00000+0  00000+0 0  9995",
        "tle_line2": "2 42818   0.0182  26.5073 0001994 252.5400  76.7961  1.00269135 31063"
      },
      "geometry": {
        "type": "Point",
        "coordinates": [
          174.8265804355977,
          0.017418409130416118
        ]
      }
    },
    {
      "type": "Feature",
      "properties": {
        "norad_id": 42950,
        "name": "INTELSAT 37E (IS-37E)",
        "group": "intelsat",
        "lat": 0.005828436156209138,
        "lon": -168.66728893490315,
        "alt_km": 35782.4256429212,
        "timestamp": "2025-12-25T07:41:09.390813+00:00",
        "meta_object_name": "INTELSAT 37E (IS-37E)",
        "meta_object_id": "2017-059A",
        "meta_epoch": "2025-12-24T21:34:29.870976",
        "meta_mean_motion": 1.00269841,
        "meta_eccentricity": 0.00031151,
        "meta_inclination": 0.0205,
        "meta_ra_of_asc_node": 23.2714,
        "meta_arg_of_pericenter": 239.3104,
        "meta_mean_anomaly": 136.7145,
        "meta_ephemeris_type": 0,
        "meta_classification_type": "U",
        "meta_norad_cat_id": 42950,
        "meta_element_set_no": 999,
        "meta_rev_at_epoch": 3031,
        "meta_bstar": 0,
        "meta_mean_motion_dot": 0,
        "meta_mean_motion_ddot": 0,
        "tle_line1": "1 42950U 17059A   25358.89895684  .00000000  00000+0  00000+0 0  9990",
        "tle_line2": "2 42950   0.0205  23.2714 0003115 239.3104 136.7145  1.00269841 30315"
      },
      "geometry": {
        "type": "Point",
        "coordinates": [
          -168.66728893490315,
          0.005828436156209138
        ]
      }
    },
    {
      "type": "Feature",
      "properties": {
        "norad_id": 43632,
        "name": "AZERSPACE 2 (IS-38)",
        "group": "intelsat",
        "lat": -0.033588264842797505,
        "lon": -105.53870476069737,
        "alt_km": 35781.158876870526,
        "timestamp": "2025-12-25T07:41:09.390825+00:00",
        "meta_object_name": "AZERSPACE 2 (IS-38)",
        "meta_object_id": "2018-074A",
        "meta_epoch": "2025-12-24T21:52:28.149888",
        "meta_mean_motion": 1.00270841,
        "meta_eccentricity": 0.00013349,
        "meta_inclination": 0.0176,
        "meta_ra_of_asc_node": 15.565,
        "meta_arg_of_pericenter": 263.3362,
        "meta_mean_anomaly": 187.9995,
        "meta_ephemeris_type": 0,
        "meta_classification_type": "U",
        "meta_norad_cat_id": 43632,
        "meta_element_set_no": 999,
        "meta_rev_at_epoch": 2670,
        "meta_bstar": 0,
        "meta_mean_motion_dot": 1.58e-06,
        "meta_mean_motion_ddot": 0,
        "tle_line1": "1 43632U 18074A   25358.91143692  .00000158  00000+0  00000+0 0  9998",
        "tle_line2": "2 43632   0.0176  15.5650 0001334 263.3362 187.9995  1.00270841 26708"
      },
      "geometry": {
        "type": "Point",
        "coordinates": [
          -105.53870476069737,
          -0.033588264842797505
        ]
      }
    },
    {
      "type": "Feature",
      "properties": {
        "norad_id": 43633,
        "name": "HORIZONS-3E",
        "group": "intelsat",
        "lat": -9.655096161267851e-05,
        "lon": 18.35671296292586,
        "alt_km": 35785.33840161878,
        "timestamp": "2025-12-25T07:41:09.390837+00:00",
        "meta_object_name": "HORIZONS-3E",
        "meta_object_id": "2018-074B",
        "meta_epoch": "2025-12-24T12:50:38.701824",
        "meta_mean_motion": 1.0026891,
        "meta_eccentricity": 6.503e-05,
        "meta_inclination": 0.0125,
        "meta_ra_of_asc_node": 213.101,
        "meta_arg_of_pericenter": 109.3498,
        "meta_mean_anomaly": 132.5125,
        "meta_ephemeris_type": 0,
        "meta_classification_type": "U",
        "meta_norad_cat_id": 43633,
        "meta_element_set_no": 999,
        "meta_rev_at_epoch": 2659,
        "meta_bstar": 0,
        "meta_mean_motion_dot": 0,
        "meta_mean_motion_ddot": 0,
        "tle_line1": "1 43633U 18074B   25358.53517016  .00000000  00000+0  00000+0 0  9998",
        "tle_line2": "2 43633   0.0125 213.1010 0000650 109.3498 132.5125  1.00268910 26590"
      },
      "geometry": {
        "type": "Point",
        "coordinates": [
          18.35671296292586,
          -9.655096161267851e-05
        ]
      }
    }
  ]
}